{
  "type": "FeatureCollection",
  "features": [
    {
      "type": "Feature",
      "properties": {
        "norad_id": 66617,
        "name": "STARLINK-35940",
        "group": "last-30-days",
        "lat": -33.01393012163717,
        "lon": 117.11960546998858,
        "alt_km": 451.880554953701,
        "timestamp": "2025-12-21T09:37:21.370527+00:00",
        "meta_object_name": "STARLINK-35940",
        "meta_object_id": "2025-271A",
        "meta_epoch": "2025-12-21T03:34:36.381216",
        "meta_mean_motion": 15.3963632,
        "meta_eccentricity": 0.0001607,
        "meta_inclination": 53.1602,
        "meta_ra_of_asc_node": 147.4589,
        "meta_arg_of_pericenter": 88.6329,
        "meta_mean_anomaly": 271.486,
        "meta_ephemeris_type": 0,
        "meta_classification_type": "U",
        "meta_norad_cat_id": 66617,
        "meta_element_set_no": 999,
        "meta_rev_at_epoch": 550,
        "meta_bstar": 0.0010329,
        "meta_mean_motion_dot": 0.0004116,
        "meta_mean_motion_ddot": 0,
        "tle_line1": "1 66617U 25271A   25355.14903219  .00041160  00000+0  10329-2 0  9990",
        "tle_line2": "2 66617  53.1602 147.4589 0001607  88.6329 271.4860 15.39636320  5509"
      },
      "geometry": {
        "type": "Point",
        "coordinates": [
          117.11960546998858,
          -33.01393012163717
        ]
      }
    },
    {
      "type": "Feature",
      "properties": {
        "norad_id": 66618,
        "name": "STARLINK-35970",
        "group": "last-30-days",
        "lat": -27.682106234643946,
        "lon": -11.087951101769818,
        "alt_km": 435.01318680962504,
        "timestamp": "2025-12-21T09:37:21.370553+00:00",
        "meta_object_name": "STARLINK-35970",
        "meta_object_id": "2025-271B",
        "meta_epoch": "2025-12-19T22:33:37.423008",
        "meta_mean_motion": 15.46560751,
        "meta_eccentricity": 0.0001439,
        "meta_inclination": 53.1597,
        "meta_ra_of_asc_node": 152.703,
        "meta_arg_of_pericenter": 41.703,
        "meta_mean_anomaly": 318.4087,
        "meta_ephemeris_type": 0,
        "meta_classification_type": "U",
        "meta_norad_cat_id": 66618,
        "meta_element_set_no": 999,
        "meta_rev_at_epoch": 532,
        "meta_bstar": -0.0083391,
        "meta_mean_motion_dot": -0.0040083,
        "meta_mean_motion_ddot": 0,
        "tle_line1": "1 66618U 25271B   25353.94001647 -.00400830  00000+0 -83391-2 0  9995",
        "tle_line2": "2 66618  53.1597 152.7030 0001439  41.7030 318.4087 15.46560751  5320"
      },
      "geometry": {
        "type": "Point",
        "coordinates": [
          -11.087951101769818,
          -27.682106234643946
        ]
      }
    },
    {
      "type": "Feature",
      "properties": {
        "norad_id": 66619,
        "name": "STARLINK-35951",
        "group": "last-30-days",
        "lat": 8.072277824860349,
        "lon": -40.2562398150906,
        "alt_km": 431.57236057889895,
        "timestamp": "2025-12-21T09:37:21.370564+00:00",
        "meta_object_name": "STARLINK-35951",
        "meta_object_id": "2025-271C",
        "meta_epoch": "2025-12-19T22:45:25.750080",
        "meta_mean_motion": 15.46545275,
        "meta_eccentricity": 0.0002872,
        "meta_inclination": 53.1623,
        "meta_ra_of_asc_node": 152.7597,
        "meta_arg_of_pericenter": 23.3692,
        "meta_mean_anomaly": 336.7446,
        "meta_ephemeris_type": 0,
        "meta_classification_type": "U",
        "meta_norad_cat_id": 66619,
        "meta_element_set_no": 999,
        "meta_rev_at_epoch": 532,
        "meta_bstar": -0.0081194,
        "meta_mean_motion_dot": -0.0039068,
        "meta_mean_motion_ddot": 0,
        "tle_line1": "1 66619U 25271C   25353.94821470 -.00390680  00000+0 -81194-2 0  9990",
        "tle_line2": "2 66619  53.1623 152.7597 0002872  23.3692 336.7446 15.46545275  5327"
      },
      "geometry": {
        "type": "Point",
        "coordinates": [
          -40.2562398150906,
          8.072277824860349
        ]
      }
    },
    {
      "type": "Feature",
      "properties": {
        "norad_id": 66620,
        "name": "STARLINK-35936",
        "group": "last-30-days",
        "lat": 21.279442183744663,
        "lon": -51.09660024650131,
        "alt_km": 431.86656578911516,
        "timestamp": "2025-12-21T09:37:21.370575+00:00",
        "meta_object_name": "STARLINK-35936",
        "meta_object_id": "2025-271D",
        "meta_epoch": "2025-12-19T22:47:58.481952",
        "meta_mean_motion": 15.45204148,
        "meta_eccentricity": 0.0001217,
        "meta_inclination": 53.1593,
        "meta_ra_of_asc_node": 152.7719,
        "meta_arg_of_pericenter": 60.4895,
        "meta_mean_anomaly": 299.6234,
        "meta_ephemeris_type": 0,
        "meta_classification_type": "U",
        "meta_norad_cat_id": 66620,
        "meta_element_set_no": 999,
        "meta_rev_at_epoch": 532,
        "meta_bstar": -0.0084825,
        "meta_mean_motion_dot": -0.00389636,
        "meta_mean_motion_ddot": 0,
        "tle_line1": "1 66620U 25271D   25353.94998243 -.00389636  00000+0 -84825-2 0  9998",
        "tle_line2": "2 66620  53.1593 152.7719 0001217  60.4895 299.6234 15.45204148  5322"
      },
      "geometry": {
        "type": "Point",
        "coordinates": [
          -51.09660024650131,
          21.279442183744663
        ]
      }
    },
    {
      "type": "Feature",
      "properties": {
        "norad_id": 66621,
        "name": "STARLINK-35847",
        "group": "last-30-days",
        "lat": -31.808266528692144,
        "lon": -6.550988514395562,
        "alt_km": 432.16642290562413,
        "timestamp": "2025-12-21T09:37:21.370588+00:00",
        "meta_object_name": "STARLINK-35847",
        "meta_object_id": "2025-271E",
        "meta_epoch": "2025-12-19T22:32:40.837056",
        "meta_mean_motion": 15.4673989,
        "meta_eccentricity": 5.74e-05,
        "meta_inclination": 53.1594,
        "meta_ra_of_asc_node": 152.6978,
        "meta_arg_of_pericenter": 182.8412,
        "meta_mean_anomaly": 177.2593,
        "meta_ephemeris_type": 0,
        "meta_classification_type": "U",
        "meta_norad_cat_id": 66621,
        "meta_element_set_no": 999,
        "meta_rev_at_epoch": 532,
        "meta_bstar": -0.0053109,
        "meta_mean_motion_dot": -0.00261578,
        "meta_mean_motion_ddot": 0,
        "tle_line1": "1 66621U 25271E   25353.93936154 -.00261578  00000+0 -53109-2 0  9996",
        "tle_line2": "2 66621  53.1594 152.6978 0000574 182.8412 177.2593 15.46739890  5326"
      },
      "geometry": {
        "type": "Point",
        "coordinates": [
          -6.550988514395562,
          -31.808266528692144
        ]
      }
    },
    {
      "type": "Feature",
      "properties": {
        "norad_id": 66622,
        "name": "STARLINK-35950",
        "group": "last-30-days",
        "lat": 43.97384583003938,
        "lon": -167.60268663532295,
        "alt_km": 440.64765897604593,
        "timestamp": "2025-12-21T09:37:21.370599+00:00",
        "meta_object_name": "STARLINK-35950",
        "meta_object_id": "2025-271F",
        "meta_epoch": "2025-12-21T04:00:01.998720",
        "meta_mean_motion": 15.39612868,
        "meta_eccentricity": 0.0001164,
        "meta_inclination": 53.1595,
        "meta_ra_of_asc_node": 147.1701,
        "meta_arg_of_pericenter": 78.5985,
        "meta_mean_anomaly": 122.5553,
        "meta_ephemeris_type": 0,
        "meta_classification_type": "U",
        "meta_norad_cat_id": 66622,
        "meta_element_set_no": 999,
        "meta_rev_at_epoch": 559,
        "meta_bstar": 0.00022164,
        "meta_mean_motion_dot": 8.474e-05,
        "meta_mean_motion_ddot": 0,
        "tle_line1": "1 66622U 25271F   25355.16668980  .00008474  00000+0  22164-3 0  9993",
        "tle_line2": "2 66622  53.1595 147.1701 0001164  78.5985 122.5553 15.39612868  5598"
      },
      "geometry": {
        "type": "Point",
        "coordinates": [
          -167.60268663532295,
          43.97384583003938
        ]
      }
    },
    {
      "type": "Feature",
      "properties": {
        "norad_id": 66623,
        "name": "STARLINK-35920",
        "group": "last-30-days",
        "lat": 6.944828849583759,
        "lon": 151.40637892822676,
        "alt_km": 447.0660331275485,
        "timestamp": "2025-12-21T09:37:21.370613+00:00",
        "meta_object_name": "STARLINK-35920",
        "meta_object_id": "2025-271G",
        "meta_epoch": "2025-12-21T03:21:11.947104",
        "meta_mean_motion": 15.39639229,
        "meta_eccentricity": 3.7e-05,
        "meta_inclination": 53.1604,
        "meta_ra_of_asc_node": 147.3981,
        "meta_arg_of_pericenter": 94.5229,
        "meta_mean_anomaly": 265.5818,
        "meta_ephemeris_type": 0,
        "meta_classification_type": "U",
        "meta_norad_cat_id": 66623,
        "meta_element_set_no": 999,
        "meta_rev_at_epoch": 550,
        "meta_bstar": 0.00074533,
        "meta_mean_motion_dot": 0.00029548,
        "meta_mean_motion_ddot": 0,
        "tle_line1": "1 66623U 25271G   25355.13972161  .00029548  00000+0  74533-3 0  9992",
        "tle_line2": "2 66623  53.1604 147.3981 0000370  94.5229 265.5818 15.39639229  5502"
      },
      "geometry": {
        "type": "Point",
        "coordinates": [
          151.40637892822676,
          6.944828849583759
        ]
      }
    }
  ]
}